{
    "links": {
        "self": "http://www.neowsapp.com/rest/v1/neo/3267144?api_key=iIulBulltgU6a56xZRHN4H3l9WmuAYTsLGpBGhQ2"
    },
    "id": "3267144",
    "neo_reference_id": "3267144",
    "name": "(2005 CA7)",
    "designation": "2005 CA7",
    "nasa_jpl_url": "http://ssd.jpl.nasa.gov/sbdb.cgi?sstr=3267144",
    "absolute_magnitude_h": 24.8,
    "estimated_diameter": {
        "kilometers": {
            "estimated_diameter_min": 0.0291443905,
            "estimated_diameter_max": 0.0651688382
        },
        "meters": {
            "estimated_diameter_min": 29.1443904535,
            "estimated_diameter_max": 65.1688382168
        },
        "miles": {
            "estimated_diameter_min": 0.018109479,
            "estimated_diameter_max": 0.0404940262
        },
        "feet": {
            "estimated_diameter_min": 95.6180819754,
            "estimated_diameter_max": 213.8085311752
        }
    },
    "is_potentially_hazardous_asteroid": false,
    "close_approach_data": [
        {
            "close_approach_date": "2005-01-31",
            "close_approach_date_full": "2005-Jan-31 05:20",
            "epoch_date_close_approach": 1107148800000,
            "relative_velocity": {
                "kilometers_per_second": "6.2820747243",
                "kilometers_per_hour": "22615.4690074025",
                "miles_per_hour": "14052.3729507385"
            },
            "miss_distance": {
                "astronomical": "0.0408816508",
                "lunar": "15.9029621612",
                "kilometers": "6115807.881763796",
                "miles": "3800186.8007245448"
            },
            "orbiting_body": "Earth"
        }
    ],
    "orbital_data": {
        "orbit_id": "9",
        "orbit_determination_date": "2017-04-06 09:11:30",
        "first_observation_date": "2005-02-02",
        "last_observation_date": "2005-02-11",
        "data_arc_in_days": 9,
        "observations_used": 20,
        "orbit_uncertainty": "8",
        "minimum_orbit_intersection": ".0377936",
        "jupiter_tisserand_invariant": "3.900",
        "epoch_osculation": "2453407.5",
        "eccentricity": ".4411888159893286",
        "semi_major_axis": "1.831270592922728",
        "inclination": "6.228168386634141",
        "ascending_node_longitude": "316.2510862173056",
        "orbital_period": "905.1638667523561",
        "perihelion_distance": "1.023334488275074",
        "perihelion_argument": "176.710969225767",
        "aphelion_distance": "2.639206697570382",
        "perihelion_time": "2453402.517245486913",
        "mean_anomaly": "1.981731364451476",
        "mean_motion": ".3977180411450212",
        "equinox": "J2000",
        "orbit_class": {
            "orbit_class_type": "AMO",
            "orbit_class_description": "Near-Earth asteroid orbits similar to that of 1221 Amor",
            "orbit_class_range": "1.017 AU < q (perihelion) < 1.3 AU"
        }
    },
    "is_sentry_object": false
}